OBJECT_NAME,OBJECT_ID,EPOCH,MEAN_MOTION,ECCENTRICITY,INCLINATION,RA_OF_ASC_NODE,ARG_OF_PERICENTER,MEAN_ANOMALY,EPHEMERIS_TYPE,CLASSIFICATION_TYPE,NORAD_CAT_ID,ELEMENT_SET_NO,REV_AT_EPOCH,BSTAR,MEAN_MOTION_DOT,MEAN_MOTION_DDOT
ONEWEB-0600,2022-166Y,2026-07-11T02:43:29.430048,13.21825767,.0001991,87.9242,239.2173,100.4356,259.7002,0,U,54664,999,17467,-.14931E-3,-.49E-6,0
ONEWEB-0601,2022-166Z,2026-07-11T02:31:21.707904,13.21824783,.0001814,87.9232,239.2346,93.4004,266.7338,0,U,54665,999,17486,-.3959E-4,-.3E-7,0
ONEWEB-0602,2022-166AA,2026-07-11T03:30:41.386176,13.21823961,.0001806,87.9250,239.2327,101.4855,258.6481,0,U,54666,999,17471,.23824E-3,.111E-5,0
ONEWEB-0603,2022-166AB,2026-07-10T02:13:07.527936,13.21827904,.00019436,87.9246,239.4017,96.5075,263.6280,0,U,54667,999,17450,.17741548E-3,.86E-6,0
ONEWEB-0604,2022-166AC,2026-07-11T01:33:12.303072,13.21823951,.0002153,87.9244,239.2240,98.1815,261.9563,0,U,54668,999,17459,.60207E-4,.38E-6,0
ONEWEB-0605,2022-166AD,2026-07-11T01:23:31.116192,13.21825154,.0001953,87.9253,239.2374,77.8979,282.2374,0,U,54669,999,17466,-.71747E-3,-.283E-5,0
ONEWEB-0606,2022-166AE,2026-07-11T01:55:01.199136,13.21825092,.0002172,87.9235,239.2445,99.9460,260.1919,0,U,54670,999,17472,.84041E-4,.48E-6,0
ONEWEB-0607,2022-166AF,2026-07-11T02:55:35.994432,13.21825693,.0001905,87.9241,239.2087,96.9777,263.1573,0,U,54671,999,17470,-.5494E-4,-.1E-6,0
ONEWEB-0608,2022-166AG,2026-07-11T01:16:14.587104,13.21823772,.000184,87.9242,239.2201,83.2094,276.9250,0,U,54672,999,17470,-.13064E-5,.12E-6,0
ONEWEB-0610,2022-166AH,2026-07-11T02:36:13.296672,13.21824935,.0001322,87.9226,239.2207,84.8901,275.2384,0,U,54673,999,17461,.2588E-3,.12E-5,0
ONEWEB-0611,2022-166AJ,2026-07-11T02:26:29.927328,13.21825592,.0002294,87.9238,239.2172,98.6142,261.5251,0,U,54674,999,17460,.1402E-4,.19E-6,0
ONEWEB-0612,2022-166AK,2026-07-11T02:45:54.182880,13.21826462,.0001973,87.9244,239.2132,92.7600,267.3760,0,U,54675,999,17459,-.16243E-4,.6E-7,0
ONEWEB-0615,2022-166AL,2026-07-11T02:16:48.337824,13.21827433,.0002217,87.9231,239.2304,103.3161,256.8221,0,U,54676,999,17460,.11615E-3,.61E-6,0
ONEWEB-0655,2022-166AM,2026-07-11T03:31:54.005376,13.21824552,.0001667,87.9254,239.2207,100.1185,260.0137,0,U,54677,999,17460,-.10148E-3,-.29E-6,0
ONEWEB-0659,2022-166AN,2026-07-11T02:07:07.728096,13.21824134,.0002186,87.9231,239.2319,96.3797,263.7586,0,U,54678,999,17468,.13144E-3,.67E-6,0
ONEWEB-0685,2022-166AP,2026-07-11T02:06:41.778720,13.21851429,.0001647,87.9231,239.2228,87.5811,272.5511,0,U,54679,999,17457,-.16294E-2,-.66E-5,0
ONEWEB-0712,2022-166AQ,2026-07-10T02:05:24.647712,13.16595460,.00017535,87.9084,224.2263,106.9555,253.1769,0,U,54680,999,17507,.20868944E-3,.93E-6,0
ONEWEB-0714,2022-166AR,2026-07-11T02:14:25.224000,13.21825423,.0002026,87.9235,239.2205,106.5788,253.5568,0,U,54681,999,17469,.68432E-4,.41E-6,0
ONEWEB-0532,2023-004A,2026-07-10T10:06:01.004544,13.17648323,.00020298,87.9132,1.2413,82.3139,277.8223,0,U,55140,999,17064,.60303617E-4,.36E-6,0
ONEWEB-0533,2023-004B,2026-07-10T09:42:54.275904,13.12443273,.00016713,87.8958,346.0533,92.1698,267.9622,0,U,55141,999,17110,.45893123E-3,.178E-5,0
ONEWEB-0541,2023-004C,2026-07-10T10:52:03.195264,13.11414310,.00020292,87.8889,16.4267,89.6645,270.4716,0,U,55142,999,16899,-.71551068E-3,-.241E-5,0
ONEWEB-0543,2023-004D,2026-07-09T14:57:34.381440,13.18686634,.00017873,87.9181,331.0059,105.0538,255.0792,0,U,55143,999,17265,.94038845E-4,.5E-6,0
ONEWEB-0544,2023-004E,2026-07-09T14:47:51.567648,13.18687306,.0001982,87.9177,331.0070,102.6328,257.5026,0,U,55144,999,17265,-.40376638E-4,-.3E-7,0
ONEWEB-0560,2023-004F,2026-07-10T08:50:45.648960,13.18684401,.00019878,87.9182,330.8470,105.5752,254.5600,0,U,55145,999,17276,.12516541E-3,.62E-6,0
ONEWEB-0565,2023-004G,2026-07-10T08:41:04.085376,13.18686474,.00022714,87.9172,330.8741,96.6077,263.5313,0,U,55146,999,17275,.6969155E-4,.4E-6,0
ONEWEB-0567,2023-004H,2026-07-10T08:31:20.972640,13.18686866,.00022251,87.9182,330.8619,100.9194,259.2189,0,U,55147,999,17275,.11566446E-3,.59E-6,0
ONEWEB-0569,2023-004J,2026-07-10T07:38:35.190240,13.13470505,.0002468,87.8987,315.6176,116.8634,243.2747,0,U,55148,999,17321,.71112681E-3,.272E-5,0
ONEWEB-0570,2023-004K,2026-07-10T08:19:12.426240,13.18686579,.00021029,87.9179,330.8607,87.4225,272.7148,0,U,55149,999,17274,.14980876E-3,.72E-6,0
ONEWEB-0571,2023-004L,2026-07-10T08:09:30.514464,13.18685901,.00030948,87.9179,330.8620,105.9160,254.2314,0,U,55150,999,17275,.16677979E-3,.79E-6,0
ONEWEB-0572,2023-004M,2026-07-10T10:50:58.469568,13.17650940,.00020169,87.9136,1.2365,92.3467,267.7896,0,U,55151,999,17054,.1508222E-3,.71E-6,0
