ONEWEB-0600             
1 54664U 22166Y   26192.11353507 -.00000049  00000+0 -14931-3 0  9992
2 54664  87.9242 239.2173 0001991 100.4356 259.7002 13.21825767174677
ONEWEB-0601             
1 54665U 22166Z   26192.10511236 -.00000003  00000+0 -39590-4 0  9996
2 54665  87.9232 239.2346 0001814  93.4004 266.7338 13.21824783174862
ONEWEB-0602             
1 54666U 22166AA  26192.14631234  .00000111  00000+0  23824-3 0  9992
2 54666  87.9250 239.2327 0001806 101.4855 258.6481 13.21823961174717
ONEWEB-0603             
1 54667U 22166AB  26191.09244824  .00000086  00000+0  17742-3 0  9994
2 54667  87.9246 239.4017 0001943  96.5075 263.6280 13.21827904174502
ONEWEB-0604             
1 54668U 22166AC  26192.06472573  .00000038  00000+0  60207-4 0  9999
2 54668  87.9244 239.2240 0002153  98.1815 261.9563 13.21823951174593
ONEWEB-0605             
1 54669U 22166AD  26192.05799903 -.00000283  00000+0 -71747-3 0  9992
2 54669  87.9253 239.2374 0001953  77.8979 282.2374 13.21825154174665
ONEWEB-0606             
1 54670U 22166AE  26192.07987499  .00000048  00000+0  84041-4 0  9994
2 54670  87.9235 239.2445 0002172  99.9460 260.1919 13.21825092174728
ONEWEB-0607             
1 54671U 22166AF  26192.12194438 -.00000010  00000+0 -54940-4 0  9990
2 54671  87.9241 239.2087 0001905  96.9777 263.1573 13.21825693174703
ONEWEB-0608             
1 54672U 22166AG  26192.05294661  .00000012  00000+0 -13064-5 0  9996
2 54672  87.9242 239.2201 0001840  83.2094 276.9250 13.21823772174702
ONEWEB-0610             
1 54673U 22166AH  26192.10848723  .00000120  00000+0  25880-3 0  9993
2 54673  87.9226 239.2207 0001322  84.8901 275.2384 13.21824935174612
ONEWEB-0611             
1 54674U 22166AJ  26192.10173527  .00000019  00000+0  14020-4 0  9999
2 54674  87.9238 239.2172 0002294  98.6142 261.5251 13.21825592174606
ONEWEB-0612             
1 54675U 22166AK  26192.11521045  .00000006  00000+0 -16243-4 0  9999
2 54675  87.9244 239.2132 0001973  92.7600 267.3760 13.21826462174591
ONEWEB-0615             
1 54676U 22166AL  26192.09500391  .00000061  00000+0  11615-3 0  9995
2 54676  87.9231 239.2304 0002217 103.3161 256.8221 13.21827433174608
ONEWEB-0655             
1 54677U 22166AM  26192.14715284 -.00000029  00000+0 -10148-3 0  9997
2 54677  87.9254 239.2207 0001667 100.1185 260.0137 13.21824552174607
ONEWEB-0659             
1 54678U 22166AN  26192.08828389  .00000067  00000+0  13144-3 0  9991
2 54678  87.9231 239.2319 0002186  96.3797 263.7586 13.21824134174681
ONEWEB-0685             
1 54679U 22166AP  26192.08798355 -.00000660  00000+0 -16294-2 0  9990
2 54679  87.9231 239.2228 0001647  87.5811 272.5511 13.21851429174572
ONEWEB-0712             
1 54680U 22166AQ  26191.08709083  .00000093  00000+0  20869-3 0  9993
2 54680  87.9084 224.2263 0001753 106.9555 253.1769 13.16595460175072
ONEWEB-0714             
1 54681U 22166AR  26192.09334750  .00000041  00000+0  68432-4 0  9993
2 54681  87.9235 239.2205 0002026 106.5788 253.5568 13.21825423174690
ONEWEB-0532             
1 55140U 23004A   26191.42084496  .00000036  00000+0  60304-4 0  9995
2 55140  87.9132   1.2413 0002029  82.3139 277.8223 13.17648323170644
ONEWEB-0533             
1 55141U 23004B   26191.40479486  .00000178  00000+0  45893-3 0  9993
2 55141  87.8958 346.0533 0001671  92.1698 267.9622 13.12443273171101
ONEWEB-0541             
1 55142U 23004C   26191.45281476 -.00000241  00000+0 -71551-3 0  9992
2 55142  87.8889  16.4267 0002029  89.6645 270.4716 13.11414310168993
ONEWEB-0543             
1 55143U 23004D   26190.62331460  .00000050  00000+0  94039-4 0  9993
2 55143  87.9181 331.0059 0001787 105.0538 255.0792 13.18686634172657
ONEWEB-0544             
1 55144U 23004E   26190.61656907 -.00000003  00000+0 -40377-4 0  9995
2 55144  87.9177 331.0070 0001982 102.6328 257.5026 13.18687306172657
ONEWEB-0560             
1 55145U 23004F   26191.36858390  .00000062  00000+0  12517-3 0  9996
2 55145  87.9182 330.8470 0001987 105.5752 254.5600 13.18684401172763
ONEWEB-0565             
1 55146U 23004G   26191.36185284  .00000040  00000+0  69692-4 0  9995
2 55146  87.9172 330.8741 0002271  96.6077 263.5313 13.18686474172753
ONEWEB-0567             
1 55147U 23004H   26191.35510385  .00000059  00000+0  11566-3 0  9995
2 55147  87.9182 330.8619 0002225 100.9194 259.2189 13.18686866172755
ONEWEB-0569             
1 55148U 23004J   26191.31846285  .00000272  00000+0  71113-3 0  9994
2 55148  87.8987 315.6176 0002468 116.8634 243.2747 13.13470505173212
ONEWEB-0570             
1 55149U 23004K   26191.34667160  .00000072  00000+0  14981-3 0  9999
2 55149  87.9179 330.8607 0002102  87.4225 272.7148 13.18686579172743
ONEWEB-0571             
1 55150U 23004L   26191.33993651  .00000079  00000+0  16678-3 0  9999
2 55150  87.9179 330.8620 0003094 105.9160 254.2314 13.18685901172754
ONEWEB-0572             
1 55151U 23004M   26191.45206562  .00000071  00000+0  15082-3 0  9991
2 55151  87.9136   1.2365 0002016  92.3467 267.7896 13.17650940170548
